{"type": "FeatureCollection", "features": [{"type": "Feature", "properties": {"name": "OOI RCA South Cable", "cable": "south", "channel_min": 942, "channel_max": 47381}, "geometry": {"type": "LineString", "coordinates": [[-123.96715, 45.2023], [-123.96777, 45.20216], [-123.96839, 45.20202], [-123.969, 45.201879], [-123.96962, 45.201739], [-123.97024, 45.201599], [-123.97086, 45.201459], [-123.97147, 45.201318], [-123.97209, 45.201178], [-123.97271, 45.201038], [-123.97333, 45.200897], [-123.97394, 45.200757], [-123.97456, 45.200617], [-123.97518, 45.200477], [-123.9758, 45.200336], [-123.97642, 45.200196], [-123.97703, 45.200056], [-123.97765, 45.199915], [-123.97827, 45.199775], [-123.97888, 45.199631], [-123.9795, 45.199487], [-123.98012, 45.199342], [-123.98073, 45.199198], [-123.98135, 45.199054], [-123.98196, 45.198909], [-123.98258, 45.198765], [-123.98319, 45.19862], [-123.98381, 45.198476], [-123.98443, 45.198331], [-123.98504, 45.198187], [-123.98565, 45.198036], [-123.98626, 45.197869], [-123.98686, 45.197703], [-123.98747, 45.197536], [-123.98807, 45.197369], [-123.98868, 45.197203], [-123.98928, 45.197036], [-123.98989, 45.196885], [-123.99051, 45.196736], [-123.99112, 45.196587], [-123.99173, 45.196438], [-123.99235, 45.196289], [-123.99296, 45.19614], [-123.99357, 45.195991], [-123.99419, 45.195842], [-123.9948, 45.195693], [-123.99542, 45.195544], [-123.99603, 45.195395], [-123.99664, 45.195246], [-123.99726, 45.195097], [-123.99787, 45.194948], [-123.99848, 45.194799], [-123.9991, 45.19465], [-123.99971, 45.1945], [-124.00032, 45.194351], [-124.00094, 45.194202], [-124.00155, 45.194053], [-124.00216, 45.193904], [-124.00278, 45.193755], [-124.00339, 45.193606], [-124.004, 45.193457], [-124.00462, 45.193308], [-124.00523, 45.193158], [-124.00584, 45.193009], [-124.00646, 45.19286], [-124.00707, 45.192711], [-124.00768, 45.192562], [-124.0083, 45.192413], [-124.00891, 45.192264], [-124.00953, 45.192115], [-124.01014, 45.191965], [-124.01075, 45.191816], [-124.01137, 45.191667], [-124.01198, 45.191518], [-124.01259, 45.191369], [-124.01321, 45.19122], [-124.01382, 45.19107], [-124.01443, 45.190921], [-124.01505, 45.190772], [-124.01566, 45.190623], [-124.01627, 45.190474], [-124.01689, 45.190325], [-124.0175, 45.190175], [-124.01811, 45.190026], [-124.01873, 45.189877], [-124.01934, 45.189728], [-124.01995, 45.189579], [-124.02058, 45.189479], [-124.02122, 45.189407], [-124.02186, 45.189334], [-124.02251, 45.189262], [-124.02315, 45.18919], [-124.02379, 45.189118], [-124.02443, 45.189046], [-124.02507, 45.188973], [-124.02571, 45.188901], [-124.02635, 45.188829], [-124.02699, 45.188757], [-124.02763, 45.188685], [-124.02827, 45.188612], [-124.02891, 45.18854], [-124.02955, 45.188468], [-124.0302, 45.188441], [-124.03085, 45.18842], [-124.03149, 45.1884], [-124.03214, 45.188379], [-124.03279, 45.188358], [-124.03344, 45.188338], [-124.03409, 45.188317], [-124.03473, 45.188297], [-124.03538, 45.188276], [-124.03603, 45.188256], [-124.03668, 45.188235], [-124.03733, 45.188215], [-124.03797, 45.188194], [-124.03862, 45.188174], [-124.03927, 45.188153], [-124.03992, 45.188132], [-124.04057, 45.188112], [-124.04121, 45.188091], [-124.04186, 45.188071], [-124.04251, 45.18805], [-124.04316, 45.18803], [-124.04381, 45.188009], [-124.04445, 45.187988], [-124.0451, 45.187968], [-124.04575, 45.187947], [-124.0464, 45.187927], [-124.04705, 45.187906], [-124.04769, 45.187885], [-124.04834, 45.187865], [-124.04899, 45.187844], [-124.04964, 45.187823], [-124.05029, 45.187803], [-124.05093, 45.187782], [-124.05158, 45.187762], [-124.05223, 45.187741], [-124.05288, 45.187724], [-124.05353, 45.18771], [-124.05417, 45.187695], [-124.05482, 45.187681], [-124.05547, 45.187667], [-124.05612, 45.187653], [-124.05677, 45.187638], [-124.05742, 45.187624], [-124.05806, 45.18761], [-124.05871, 45.187595], [-124.05936, 45.187581], [-124.06001, 45.187567], [-124.06066, 45.187553], [-124.06131, 45.187538], [-124.06195, 45.187524], [-124.0626, 45.18751], [-124.06325, 45.187495], [-124.0639, 45.187481], [-124.06455, 45.187467], [-124.0652, 45.187452], [-124.06584, 45.187438], [-124.06649, 45.187424], [-124.06714, 45.187409], [-124.06779, 45.187395], [-124.06844, 45.187381], [-124.06909, 45.187366], [-124.06973, 45.187352], [-124.07038, 45.187338], [-124.07103, 45.187323], [-124.07168, 45.187309], [-124.07233, 45.187295], [-124.07298, 45.18728], [-124.07362, 45.187266], [-124.07427, 45.187252], [-124.07492, 45.187237], [-124.07557, 45.187223], [-124.07622, 45.187208], [-124.07687, 45.187194], [-124.07751, 45.18718], [-124.07816, 45.187165], [-124.07881, 45.187151], [-124.07946, 45.187137], [-124.08011, 45.187111], [-124.08075, 45.187042], [-124.08139, 45.186973], [-124.08203, 45.186904], [-124.08267, 45.186835], [-124.08331, 45.186766], [-124.08395, 45.186697], [-124.08459, 45.186628], [-124.08524, 45.186559], [-124.08588, 45.18649], [-124.08652, 45.186421], [-124.08716, 45.186352], [-124.0878, 45.186283], [-124.08844, 45.186214], [-124.08908, 45.186145], [-124.08972, 45.186076], [-124.09036, 45.186007], [-124.09101, 45.185937], [-124.09165, 45.185868], [-124.09229, 45.185799], [-124.09293, 45.18573], [-124.09357, 45.185661], [-124.09421, 45.185592], [-124.09485, 45.185523], [-124.09549, 45.185454], [-124.09614, 45.185385], [-124.09678, 45.185316], [-124.09742, 45.185247], [-124.09806, 45.185177], [-124.0987, 45.185108], [-124.09934, 45.185039], [-124.09998, 45.18497], [-124.10062, 45.184901], [-124.10126, 45.184832], [-124.10191, 45.184763], [-124.10255, 45.184694], [-124.10319, 45.184624], [-124.10383, 45.184555], [-124.10447, 45.184486], [-124.10511, 45.184417], [-124.10575, 45.184348], [-124.10639, 45.184279], [-124.10704, 45.18421], [-124.10768, 45.18414], [-124.10832, 45.184071], [-124.10896, 45.184002], [-124.1096, 45.183933], [-124.11024, 45.183864], [-124.11088, 45.183794], [-124.11152, 45.183725], [-124.11216, 45.183656], [-124.11281, 45.183587], [-124.11345, 45.183518], [-124.11409, 45.183449], [-124.11473, 45.183379], [-124.11537, 45.18331], [-124.11601, 45.183241], [-124.11665, 45.183172], [-124.11729, 45.183102], [-124.11794, 45.183033], [-124.11858, 45.182964], [-124.11922, 45.182895], [-124.11986, 45.182826], [-124.1205, 45.182756], [-124.12114, 45.182687], [-124.12178, 45.182618], [-124.12242, 45.182549], [-124.12306, 45.182479], [-124.12371, 45.18241], [-124.12435, 45.182341], [-124.12499, 45.182272], [-124.12563, 45.182202], [-124.12627, 45.182133], [-124.12691, 45.182064], [-124.12756, 45.182013], [-124.1282, 45.181971], [-124.12885, 45.181928], [-124.12949, 45.181886], [-124.13014, 45.181843], [-124.13078, 45.181801], [-124.13143, 45.181759], [-124.13208, 45.181716], [-124.13272, 45.181674], [-124.13337, 45.181632], [-124.13401, 45.181589], [-124.13466, 45.181547], [-124.1353, 45.181505], [-124.13595, 45.181463], [-124.1366, 45.18142], [-124.13724, 45.181378], [-124.13789, 45.181336], [-124.13853, 45.181293], [-124.13918, 45.181251], [-124.13982, 45.181209], [-124.14047, 45.181166], [-124.14112, 45.181124], [-124.14176, 45.181081], [-124.14241, 45.181039], [-124.14305, 45.180997], [-124.1437, 45.180954], [-124.14435, 45.180912], [-124.14499, 45.18087], [-124.14564, 45.180827], [-124.14628, 45.180785], [-124.14693, 45.180742], [-124.14757, 45.1807], [-124.14822, 45.180658], [-124.14887, 45.180615], [-124.14951, 45.180573], [-124.15016, 45.18053], [-124.1508, 45.180488], [-124.15145, 45.180446], [-124.15209, 45.180403], [-124.15274, 45.180361], [-124.15339, 45.180318], [-124.15403, 45.180276], [-124.15468, 45.180234], [-124.15532, 45.180191], [-124.15597, 45.180149], [-124.15661, 45.180106], [-124.15726, 45.180064], [-124.15791, 45.180021], [-124.15855, 45.179979], [-124.1592, 45.179936], [-124.15984, 45.179894], [-124.16049, 45.179852], [-124.16113, 45.179809], [-124.16178, 45.179767], [-124.16243, 45.179725], [-124.16307, 45.179683], [-124.16372, 45.179641], [-124.16436, 45.179599], [-124.16501, 45.179557], [-124.16566, 45.179515], [-124.1663, 45.179473], [-124.16695, 45.179431], [-124.16759, 45.179388], [-124.16824, 45.179346], [-124.16888, 45.179304], [-124.16953, 45.179262], [-124.17018, 45.17922], [-124.17082, 45.179178], [-124.17147, 45.179136], [-124.17211, 45.179094], [-124.17276, 45.179051], [-124.1734, 45.179009], [-124.17405, 45.178967], [-124.1747, 45.178925], [-124.17534, 45.178883], [-124.17599, 45.178841], [-124.17663, 45.178798], [-124.17728, 45.178756], [-124.17792, 45.178714], [-124.17857, 45.178672], [-124.17922, 45.17863], [-124.17986, 45.178588], [-124.18051, 45.178545], [-124.18115, 45.178503], [-124.1818, 45.178461], [-124.18245, 45.178419], [-124.18309, 45.178377], [-124.18374, 45.178334], [-124.18438, 45.178292], [-124.18503, 45.17825], [-124.18567, 45.178208], [-124.18632, 45.178166], [-124.18697, 45.178123], [-124.18761, 45.178081], [-124.18826, 45.178039], [-124.1889, 45.177997], [-124.18955, 45.177954], [-124.19019, 45.177912], [-124.19084, 45.17787], [-124.19149, 45.177828], [-124.19213, 45.177786], [-124.19278, 45.177743], [-124.19342, 45.177701], [-124.19407, 45.177659], [-124.19471, 45.177616], [-124.19536, 45.177574], [-124.19601, 45.177532], [-124.19665, 45.17749], [-124.1973, 45.177447], [-124.19794, 45.177405], [-124.19859, 45.177363], [-124.19923, 45.177321], [-124.19988, 45.177278], [-124.20053, 45.177236], [-124.20117, 45.177194], [-124.20182, 45.177151], [-124.20246, 45.177109], [-124.20311, 45.177067], [-124.20375, 45.177024], [-124.2044, 45.176982], [-124.20505, 45.17694], [-124.20569, 45.176897], [-124.20634, 45.176855], [-124.20698, 45.176813], [-124.20763, 45.17677], [-124.20827, 45.176728], [-124.20892, 45.176686], [-124.20957, 45.176643], [-124.21021, 45.176601], [-124.21086, 45.176559], [-124.2115, 45.176516], [-124.21215, 45.176474], [-124.21279, 45.176432], [-124.21344, 45.176389], [-124.21409, 45.176347], [-124.21473, 45.176304], [-124.21538, 45.176262], [-124.21602, 45.17622], [-124.21667, 45.176177], [-124.21731, 45.176135], [-124.21796, 45.176093], [-124.21861, 45.17605], [-124.21925, 45.176008], [-124.2199, 45.175965], [-124.22054, 45.175923], [-124.22119, 45.175881], [-124.22183, 45.175838], [-124.22248, 45.175796], [-124.22313, 45.175753], [-124.22377, 45.175711], [-124.22442, 45.175668], [-124.22506, 45.175626], [-124.22571, 45.175584], [-124.22635, 45.175541], [-124.227, 45.175499], [-124.22765, 45.175456], [-124.22829, 45.175414], [-124.22894, 45.175371], [-124.22958, 45.175329], [-124.23023, 45.175286], [-124.23087, 45.175244], [-124.23152, 45.175201], [-124.23217, 45.175159], [-124.23281, 45.175116], [-124.23346, 45.175074], [-124.2341, 45.175031], [-124.23475, 45.174989], [-124.23539, 45.174946], [-124.23604, 45.174904], [-124.23669, 45.174861], [-124.23733, 45.174819], [-124.23798, 45.174776], [-124.23862, 45.174734], [-124.23927, 45.174691], [-124.23991, 45.174649], [-124.24056, 45.174606], [-124.2412, 45.174564], [-124.24185, 45.174521], [-124.2425, 45.174479], [-124.24314, 45.174436], [-124.24379, 45.174394], [-124.24443, 45.174351], [-124.24508, 45.174309], [-124.24572, 45.174266], [-124.24637, 45.174224], [-124.24702, 45.174181], [-124.24766, 45.174138], [-124.24831, 45.174096], [-124.24895, 45.174053], [-124.2496, 45.174011], [-124.25024, 45.173968], [-124.25089, 45.173926], [-124.25154, 45.173883], [-124.25218, 45.17384], [-124.25283, 45.173798], [-124.25347, 45.173755], [-124.25412, 45.173713], [-124.25476, 45.17367], [-124.25541, 45.173627], [-124.25605, 45.173585], [-124.2567, 45.173542], [-124.25735, 45.1735], [-124.25799, 45.173457], [-124.25864, 45.173414], [-124.25928, 45.173372], [-124.25993, 45.173329], [-124.26057, 45.173286], [-124.26122, 45.173244], [-124.26187, 45.173201], [-124.26251, 45.173158], [-124.26316, 45.173116], [-124.2638, 45.173073], [-124.26445, 45.173031], [-124.26509, 45.172988], [-124.26574, 45.172945], [-124.26639, 45.172921], [-124.26703, 45.172921], [-124.26768, 45.17292], [-124.26833, 45.172919], [-124.26898, 45.172918], [-124.26963, 45.172917], [-124.27028, 45.172916], [-124.27092, 45.172915], [-124.27157, 45.172914], [-124.27222, 45.172913], [-124.27287, 45.172912], [-124.27352, 45.172911], [-124.27417, 45.17291], [-124.27482, 45.172909], [-124.27546, 45.172908], [-124.27611, 45.172907], [-124.27676, 45.172906], [-124.27741, 45.172905], [-124.27806, 45.172903], [-124.27871, 45.172902], [-124.27935, 45.172901], [-124.28, 45.1729], [-124.28065, 45.172899], [-124.2813, 45.172898], [-124.28195, 45.172897], [-124.2826, 45.172896], [-124.28325, 45.172895], [-124.28389, 45.172894], [-124.28454, 45.172893], [-124.28519, 45.172892], [-124.28584, 45.172891], [-124.28649, 45.17289], [-124.28714, 45.172888], [-124.28778, 45.172887], [-124.28843, 45.172886], [-124.28908, 45.172885], [-124.28973, 45.172884], [-124.29038, 45.172878], [-124.29103, 45.172863], [-124.29167, 45.172848], [-124.29232, 45.172833], [-124.29297, 45.172818], [-124.29362, 45.172803], [-124.29427, 45.172787], [-124.29491, 45.172772], [-124.29556, 45.172757], [-124.29621, 45.172742], [-124.29686, 45.172727], [-124.29751, 45.172712], [-124.29815, 45.172697], [-124.2988, 45.172682], [-124.29945, 45.172667], [-124.3001, 45.172651], [-124.30075, 45.172636], [-124.30139, 45.172621], [-124.30204, 45.172606], [-124.30269, 45.172591], [-124.30334, 45.172576], [-124.30399, 45.172561], [-124.30464, 45.172545], [-124.30528, 45.17253], [-124.30593, 45.172515], [-124.30658, 45.1725], [-124.30723, 45.172485], [-124.30788, 45.17247], [-124.30852, 45.172454], [-124.30917, 45.172439], [-124.30982, 45.172424], [-124.31047, 45.172409], [-124.31112, 45.172394], [-124.31176, 45.172378], [-124.31241, 45.172363], [-124.31306, 45.172348], [-124.31371, 45.172333], [-124.31436, 45.172318], [-124.315, 45.172302], [-124.31565, 45.172287], [-124.3163, 45.172272], [-124.31695, 45.172257], [-124.3176, 45.172241], [-124.31824, 45.172226], [-124.31889, 45.172211], [-124.31954, 45.172196], [-124.32019, 45.17218], [-124.32084, 45.172165], [-124.32148, 45.17215], [-124.32213, 45.172135], [-124.32278, 45.172119], [-124.32343, 45.172104], [-124.32408, 45.172089], [-124.32473, 45.172074], [-124.32537, 45.172058], [-124.32602, 45.172043], [-124.32667, 45.172028], [-124.32732, 45.172012], [-124.32797, 45.171997], [-124.32861, 45.171971], [-124.32926, 45.171921], [-124.3299, 45.171871], [-124.33055, 45.171821], [-124.33119, 45.171772], [-124.33184, 45.171722], [-124.33248, 45.171672], [-124.33312, 45.171622], [-124.33377, 45.171572], [-124.33441, 45.171522], [-124.33506, 45.171472], [-124.3357, 45.171422], [-124.33635, 45.171372], [-124.33699, 45.171323], [-124.33764, 45.171273], [-124.33828, 45.171223], [-124.33893, 45.171173], [-124.33957, 45.171123], [-124.34021, 45.171073], [-124.34086, 45.171023], [-124.3415, 45.170973], [-124.34215, 45.170926], [-124.34279, 45.17088], [-124.34344, 45.170833], [-124.34408, 45.170786], [-124.34473, 45.17074], [-124.34537, 45.170693], [-124.34602, 45.170647], [-124.34666, 45.1706], [-124.34731, 45.170553], [-124.34795, 45.170506], [-124.3486, 45.17046], [-124.34924, 45.170413], [-124.34989, 45.170366], [-124.35053, 45.17032], [-124.35118, 45.170273], [-124.35182, 45.170226], [-124.35247, 45.17018], [-124.35311, 45.170133], [-124.35376, 45.170086], [-124.3544, 45.170029], [-124.35505, 45.169972], [-124.35569, 45.169915], [-124.35633, 45.169858], [-124.35698, 45.169801], [-124.35762, 45.169744], [-124.35826, 45.169686], [-124.35891, 45.169629], [-124.35955, 45.169572], [-124.36019, 45.169515], [-124.36084, 45.169458], [-124.36148, 45.1694], [-124.36212, 45.169343], [-124.36277, 45.169286], [-124.36341, 45.169229], [-124.36405, 45.169172], [-124.3647, 45.169114], [-124.36534, 45.169057], [-124.36598, 45.168987], [-124.36662, 45.168918], [-124.36726, 45.168848], [-124.3679, 45.168779], [-124.36854, 45.16871], [-124.36918, 45.16864], [-124.36983, 45.168571], [-124.37047, 45.168501], [-124.37111, 45.168432], [-124.37175, 45.168362], [-124.37239, 45.168293], [-124.37303, 45.168224], [-124.37367, 45.168154], [-124.37431, 45.168085], [-124.37495, 45.168015], [-124.37559, 45.167948], [-124.37624, 45.167893], [-124.37688, 45.167838], [-124.37752, 45.167783], [-124.37817, 45.167729], [-124.37881, 45.167674], [-124.37946, 45.167621], [-124.3801, 45.167568], [-124.38074, 45.167515], [-124.38139, 45.167462], [-124.38203, 45.167409], [-124.38268, 45.167355], [-124.38332, 45.167301], [-124.38396, 45.167244], [-124.38461, 45.167188], [-124.38525, 45.167131], [-124.38589, 45.167074], [-124.38654, 45.167018], [-124.38718, 45.166961], [-124.38782, 45.166905], [-124.38847, 45.166848], [-124.38911, 45.166791], [-124.38975, 45.166735], [-124.3904, 45.166678], [-124.39104, 45.166622], [-124.39168, 45.166565], [-124.39233, 45.166508], [-124.39297, 45.166452], [-124.39361, 45.166395], [-124.39426, 45.166338], [-124.3949, 45.166282], [-124.39554, 45.166225], [-124.39619, 45.166169], [-124.39683, 45.166112], [-124.39747, 45.166055], [-124.39812, 45.165999], [-124.39876, 45.165942], [-124.3994, 45.165885], [-124.40005, 45.165829], [-124.40069, 45.165772], [-124.40133, 45.165715], [-124.40198, 45.165659], [-124.40262, 45.165602], [-124.40326, 45.165545], [-124.40391, 45.165489], [-124.40455, 45.165432], [-124.40519, 45.165375], [-124.40584, 45.165319], [-124.40648, 45.165262], [-124.40712, 45.165205], [-124.40777, 45.165148], [-124.40841, 45.165092], [-124.40905, 45.165035], [-124.4097, 45.164978], [-124.41034, 45.164922], [-124.41098, 45.164865], [-124.41163, 45.164808], [-124.41227, 45.164751], [-124.41291, 45.164695], [-124.41356, 45.164638], [-124.4142, 45.164581], [-124.41485, 45.164524], [-124.41549, 45.164468], [-124.41613, 45.164411], [-124.41678, 45.164354], [-124.41742, 45.164297], [-124.41806, 45.164241], [-124.4187, 45.164184], [-124.41935, 45.164127], [-124.41999, 45.16407], [-124.42063, 45.164014], [-124.42128, 45.163957], [-124.42192, 45.1639], [-124.42256, 45.163843], [-124.42321, 45.163786], [-124.42385, 45.16373], [-124.42449, 45.163673], [-124.42514, 45.163616], [-124.42578, 45.163559], [-124.42642, 45.163502], [-124.42707, 45.163446], [-124.42771, 45.163389], [-124.42835, 45.163332], [-124.429, 45.163275], [-124.42964, 45.163218], [-124.43028, 45.163162], [-124.43093, 45.163105], [-124.43157, 45.163048], [-124.43221, 45.162991], [-124.43286, 45.162934], [-124.4335, 45.162877], [-124.43414, 45.16282], [-124.43479, 45.162764], [-124.43543, 45.162707], [-124.43607, 45.16265], [-124.43672, 45.162593], [-124.43736, 45.162536], [-124.438, 45.162479], [-124.43865, 45.162422], [-124.43929, 45.162366], [-124.43993, 45.162309], [-124.44058, 45.162252], [-124.44122, 45.162195], [-124.44186, 45.162138], [-124.44251, 45.162081], [-124.44315, 45.162024], [-124.44379, 45.161967], [-124.44444, 45.16191], [-124.44507, 45.161812], [-124.44569, 45.161684], [-124.44631, 45.161556], [-124.44694, 45.161428], [-124.44756, 45.161301], [-124.44818, 45.161173], [-124.4488, 45.161045], [-124.44943, 45.160917], [-124.45005, 45.160789], [-124.45067, 45.160661], [-124.45129, 45.160533], [-124.45192, 45.160405], [-124.45254, 45.160277], [-124.45316, 45.160149], [-124.45378, 45.160021], [-124.45441, 45.159893], [-124.45503, 45.159766], [-124.45565, 45.159638], [-124.45627, 45.15951], [-124.4569, 45.159382], [-124.45752, 45.159254], [-124.45814, 45.159126], [-124.45876, 45.158998], [-124.45939, 45.15887], [-124.46001, 45.158742], [-124.46063, 45.158614], [-124.46125, 45.158486], [-124.46188, 45.158358], [-124.4625, 45.15823], [-124.46312, 45.158102], [-124.46374, 45.157974], [-124.46437, 45.157846], [-124.46499, 45.157718], [-124.46561, 45.15759], [-124.46623, 45.157462], [-124.46686, 45.157334], [-124.46748, 45.157206], [-124.4681, 45.157078], [-124.46872, 45.15695], [-124.46935, 45.156822], [-124.46997, 45.156694], [-124.4706, 45.156589], [-124.47123, 45.156498], [-124.47187, 45.156407], [-124.47251, 45.156316], [-124.47314, 45.156225], [-124.47378, 45.156134], [-124.47441, 45.156043], [-124.47505, 45.155952], [-124.47568, 45.15586], [-124.47632, 45.155769], [-124.47695, 45.155678], [-124.47759, 45.155587], [-124.47822, 45.155496], [-124.47886, 45.155405], [-124.47949, 45.155314], [-124.48013, 45.155222], [-124.48076, 45.155131], [-124.4814, 45.15504], [-124.48203, 45.154949], [-124.48267, 45.154858], [-124.4833, 45.154767], [-124.48394, 45.154675], [-124.48458, 45.154584], [-124.48521, 45.154493], [-124.48585, 45.154402], [-124.48648, 45.154311], [-124.48712, 45.15422], [-124.48775, 45.154128], [-124.48839, 45.154037], [-124.48902, 45.153946], [-124.48966, 45.153855], [-124.49029, 45.153763], [-124.49093, 45.153672], [-124.49156, 45.153581], [-124.4922, 45.15349], [-124.49283, 45.153399], [-124.49347, 45.153307], [-124.4941, 45.153216], [-124.49474, 45.153125], [-124.49537, 45.153034], [-124.49601, 45.152942], [-124.49664, 45.152851], [-124.49728, 45.15276], [-124.49792, 45.152669], [-124.49855, 45.152577], [-124.49919, 45.152486], [-124.49982, 45.152395], [-124.50046, 45.152304], [-124.50109, 45.152212], [-124.50173, 45.152121], [-124.50236, 45.15203], [-124.503, 45.151939], [-124.50363, 45.151847], [-124.50427, 45.151756], [-124.5049, 45.151665], [-124.50554, 45.151573], [-124.50617, 45.151482], [-124.50681, 45.151391], [-124.50744, 45.151299], [-124.50808, 45.151208], [-124.50871, 45.151117], [-124.50935, 45.151026], [-124.50998, 45.150934], [-124.51062, 45.150843], [-124.51125, 45.150752], [-124.51189, 45.15066], [-124.51252, 45.150569], [-124.51316, 45.150478], [-124.5138, 45.150386], [-124.51443, 45.150295], [-124.51507, 45.150204], [-124.5157, 45.150112], [-124.51634, 45.150021], [-124.51697, 45.149929], [-124.51761, 45.149838], [-124.51824, 45.149747], [-124.51888, 45.149655], [-124.51951, 45.149564], [-124.52015, 45.149473], [-124.52078, 45.149381], [-124.52142, 45.14929], [-124.52205, 45.149198], [-124.52269, 45.149107], [-124.52332, 45.149016], [-124.52396, 45.148924], [-124.52459, 45.148833], [-124.52523, 45.148741], [-124.52586, 45.14865], [-124.5265, 45.148559], [-124.52713, 45.148467], [-124.52777, 45.148376], [-124.5284, 45.148284], [-124.52904, 45.148193], [-124.52967, 45.148102], [-124.53031, 45.14801], [-124.53094, 45.147919], [-124.53159, 45.147899], [-124.53224, 45.147901], [-124.53288, 45.147902], [-124.53353, 45.147904], [-124.53418, 45.147905], [-124.53483, 45.147906], [-124.53548, 45.147908], [-124.53613, 45.147909], [-124.53677, 45.147911], [-124.53742, 45.147912], [-124.53807, 45.147913], [-124.53872, 45.147915], [-124.53937, 45.147916], [-124.54001, 45.147917], [-124.54066, 45.147919], [-124.54131, 45.14792], [-124.54196, 45.147921], [-124.54261, 45.147923], [-124.54325, 45.147924], [-124.5439, 45.147925], [-124.54455, 45.147927], [-124.5452, 45.147928], [-124.54585, 45.147929], [-124.5465, 45.147931], [-124.54714, 45.147932], [-124.54779, 45.147933], [-124.54844, 45.147935], [-124.54909, 45.147936], [-124.54974, 45.147937], [-124.55038, 45.147939], [-124.55103, 45.14794], [-124.55168, 45.147941], [-124.55233, 45.147943], [-124.55298, 45.147944], [-124.55362, 45.147945], [-124.55427, 45.147946], [-124.55492, 45.147948], [-124.55557, 45.147949], [-124.55622, 45.14795], [-124.55686, 45.147951], [-124.55751, 45.147953], [-124.55816, 45.147954], [-124.55881, 45.147955], [-124.55946, 45.147956], [-124.56011, 45.147958], [-124.56075, 45.147959], [-124.5614, 45.14796], [-124.56205, 45.147961], [-124.5627, 45.147963], [-124.56335, 45.147964], [-124.56399, 45.147965], [-124.56464, 45.147966], [-124.56529, 45.147968], [-124.56594, 45.147969], [-124.56659, 45.14797], [-124.56723, 45.147971], [-124.56788, 45.147972], [-124.56853, 45.147974], [-124.56918, 45.147975], [-124.56983, 45.147976], [-124.57048, 45.147977], [-124.57112, 45.147978], [-124.57177, 45.14798], [-124.57242, 45.147981], [-124.57307, 45.147982], [-124.57372, 45.147983], [-124.57436, 45.147985], [-124.57501, 45.147986], [-124.57566, 45.147987], [-124.57631, 45.147988], [-124.57696, 45.14799], [-124.5776, 45.147991], [-124.57825, 45.147992], [-124.5789, 45.147993], [-124.57955, 45.147995], [-124.5802, 45.147996], [-124.58084, 45.147997], [-124.58149, 45.147998], [-124.58214, 45.147999], [-124.58279, 45.148001], [-124.58343, 45.148016], [-124.58407, 45.14812], [-124.5847, 45.148223], [-124.58533, 45.148327], [-124.58596, 45.148431], [-124.58659, 45.148535], [-124.58722, 45.148638], [-124.58785, 45.148742], [-124.58849, 45.148846], [-124.58912, 45.14895], [-124.58975, 45.149053], [-124.59038, 45.149157], [-124.59101, 45.149261], [-124.59164, 45.149364], [-124.59227, 45.149468], [-124.5929, 45.149572], [-124.59354, 45.149676], [-124.59417, 45.149779], [-124.5948, 45.149883], [-124.59543, 45.149987], [-124.59606, 45.15009], [-124.59669, 45.150194], [-124.59732, 45.150298], [-124.59796, 45.150401], [-124.59859, 45.150505], [-124.59922, 45.150609], [-124.59985, 45.150712], [-124.60048, 45.150816], [-124.60111, 45.15092], [-124.60174, 45.151023], [-124.60237, 45.151127], [-124.60301, 45.151231], [-124.60364, 45.151334], [-124.60427, 45.151438], [-124.6049, 45.151542], [-124.60553, 45.151645], [-124.60616, 45.151749], [-124.60679, 45.151853], [-124.60743, 45.151956], [-124.60806, 45.15206], [-124.60869, 45.152163], [-124.60932, 45.152267], [-124.60995, 45.152371], [-124.61058, 45.152474], [-124.61121, 45.152578], [-124.61185, 45.152681], [-124.61248, 45.152785], [-124.61311, 45.152889], [-124.61374, 45.152992], [-124.61437, 45.153096], [-124.615, 45.153199], [-124.61563, 45.153303], [-124.61627, 45.153407], [-124.6169, 45.15351], [-124.61753, 45.153614], [-124.61816, 45.153717], [-124.61879, 45.153821], [-124.61942, 45.153924], [-124.62005, 45.154028], [-124.62069, 45.154132], [-124.62132, 45.154235], [-124.62195, 45.154339], [-124.62258, 45.154442], [-124.62321, 45.154546], [-124.62384, 45.154649], [-124.62447, 45.154753], [-124.62511, 45.154856], [-124.62574, 45.15496], [-124.62637, 45.155063], [-124.627, 45.155167], [-124.62763, 45.15527], [-124.62826, 45.155374], [-124.62889, 45.155477], [-124.62953, 45.155581], [-124.63016, 45.155684], [-124.63079, 45.155788], [-124.63142, 45.155891], [-124.63204, 45.156017], [-124.63263, 45.156213], [-124.63321, 45.156409], [-124.6338, 45.156605], [-124.63438, 45.156801], [-124.63497, 45.156998], [-124.63556, 45.157194], [-124.63614, 45.15739], [-124.63673, 45.157586], [-124.63731, 45.157782], [-124.6379, 45.157978], [-124.63849, 45.158174], [-124.63907, 45.15837], [-124.63966, 45.158566], [-124.64024, 45.158762], [-124.64083, 45.158958], [-124.64142, 45.159154], [-124.642, 45.15935], [-124.64259, 45.159547], [-124.64317, 45.159743], [-124.64376, 45.159939], [-124.64435, 45.160135], [-124.64493, 45.160331], [-124.64552, 45.160527], [-124.6461, 45.160723], [-124.64669, 45.160919], [-124.64728, 45.161115], [-124.64786, 45.161311], [-124.64845, 45.161507], [-124.64903, 45.161703], [-124.64962, 45.161899], [-124.65021, 45.162095], [-124.65079, 45.162291], [-124.65138, 45.162487], [-124.65196, 45.162683], [-124.65255, 45.162879], [-124.65314, 45.163075], [-124.65372, 45.163271], [-124.6543, 45.163484], [-124.65487, 45.163703], [-124.65544, 45.163922], [-124.65601, 45.164141], [-124.65658, 45.16436], [-124.65714, 45.164579], [-124.65771, 45.164799], [-124.65828, 45.165018], [-124.65885, 45.165237], [-124.65942, 45.165456], [-124.65999, 45.165675], [-124.66056, 45.165894], [-124.66113, 45.166113], [-124.6617, 45.166332], [-124.66227, 45.166551], [-124.66284, 45.16677], [-124.66341, 45.166989], [-124.66398, 45.167208], [-124.66455, 45.167427], [-124.66512, 45.167646], [-124.66569, 45.167865], [-124.66626, 45.168084], [-124.66683, 45.168303], [-124.6674, 45.168522], [-124.66797, 45.168741], [-124.66854, 45.16896], [-124.66911, 45.169179], [-124.66968, 45.169398], [-124.67025, 45.169617], [-124.67082, 45.169836], [-124.67138, 45.170055], [-124.67195, 45.170274], [-124.6725, 45.170525], [-124.67304, 45.170778], [-124.67358, 45.17103], [-124.67412, 45.171282], [-124.67466, 45.171535], [-124.6752, 45.171787], [-124.67574, 45.17204], [-124.67629, 45.172292], [-124.67683, 45.172544], [-124.67737, 45.172797], [-124.67791, 45.173049], [-124.67845, 45.173301], [-124.67899, 45.173554], [-124.67953, 45.173806], [-124.68008, 45.174058], [-124.68062, 45.174311], [-124.68116, 45.174563], [-124.6817, 45.174815], [-124.68224, 45.175068], [-124.68278, 45.17532], [-124.68332, 45.175572], [-124.68387, 45.175825], [-124.68441, 45.176077], [-124.68495, 45.176329], [-124.68549, 45.176582], [-124.68603, 45.176834], [-124.68657, 45.177086], [-124.68711, 45.177339], [-124.68766, 45.177591], [-124.6882, 45.177843], [-124.68874, 45.178095], [-124.68928, 45.178348], [-124.68982, 45.1786], [-124.69036, 45.178852], [-124.69091, 45.179105], [-124.69145, 45.179357], [-124.69199, 45.179609], [-124.69253, 45.179862], [-124.69307, 45.180114], [-124.69361, 45.180366], [-124.69416, 45.180611], [-124.69471, 45.180854], [-124.69526, 45.181097], [-124.69581, 45.18134], [-124.69636, 45.181583], [-124.69691, 45.181826], [-124.69746, 45.182069], [-124.69801, 45.182312], [-124.69856, 45.182555], [-124.69911, 45.182798], [-124.69966, 45.183041], [-124.70021, 45.183284], [-124.70076, 45.183527], [-124.70131, 45.18377], [-124.70186, 45.184013], [-124.70241, 45.184256], [-124.70296, 45.184499], [-124.70351, 45.184742], [-124.70406, 45.184985], [-124.70461, 45.185228], [-124.70516, 45.185471], [-124.70571, 45.185713], [-124.70626, 45.185956], [-124.70681, 45.186199], [-124.70742, 45.186361], [-124.70803, 45.186521], [-124.70863, 45.186681], [-124.70924, 45.18684], [-124.70985, 45.187], [-124.71046, 45.18716], [-124.71106, 45.187319], [-124.71167, 45.187479], [-124.71228, 45.187639], [-124.71289, 45.187799], [-124.7135, 45.187958], [-124.7141, 45.188118], [-124.71471, 45.188278], [-124.71532, 45.188437], [-124.71593, 45.188597], [-124.71654, 45.188757], [-124.71714, 45.188917], [-124.71775, 45.189076], [-124.71836, 45.189236], [-124.71897, 45.189396], [-124.71958, 45.189555], [-124.72018, 45.189715], [-124.72079, 45.189875], [-124.7214, 45.190034], [-124.72201, 45.190194], [-124.72262, 45.190354], [-124.72322, 45.190513], [-124.72383, 45.190673], [-124.72444, 45.190833], [-124.72507, 45.190931], [-124.72571, 45.191027], [-124.72634, 45.191122], [-124.72698, 45.191218], [-124.72761, 45.191313], [-124.72824, 45.191409], [-124.72888, 45.191504], [-124.72951, 45.1916], [-124.73015, 45.191695], [-124.73078, 45.191791], [-124.73142, 45.191886], [-124.73205, 45.191982], [-124.73269, 45.192077], [-124.73332, 45.192173], [-124.73395, 45.192268], [-124.73459, 45.192364], [-124.73522, 45.192459], [-124.73586, 45.192536], [-124.7365, 45.192606], [-124.73714, 45.192676], [-124.73779, 45.192746], [-124.73843, 45.192815], [-124.73907, 45.192885], [-124.73971, 45.192955], [-124.74035, 45.193025], [-124.74099, 45.193094], [-124.74163, 45.193164], [-124.74227, 45.193234], [-124.74291, 45.193303], [-124.74355, 45.193373], [-124.7442, 45.193443], [-124.74484, 45.193513], [-124.74548, 45.193566], [-124.74612, 45.193526], [-124.74677, 45.193486], [-124.74742, 45.193446], [-124.74806, 45.193406], [-124.74871, 45.193366], [-124.74936, 45.193326], [-124.75, 45.193286], [-124.75065, 45.193246], [-124.75129, 45.193207], [-124.75194, 45.193167], [-124.75259, 45.193127], [-124.75323, 45.193087], [-124.75388, 45.193047], [-124.75452, 45.193007], [-124.75517, 45.192967], [-124.75582, 45.192927], [-124.75646, 45.192887], [-124.75711, 45.192847], [-124.75775, 45.192807], [-124.7584, 45.192767], [-124.75905, 45.192727], [-124.75969, 45.192687], [-124.76034, 45.192647], [-124.76099, 45.192607], [-124.76163, 45.192567], [-124.76228, 45.192527], [-124.76292, 45.192488], [-124.76357, 45.192448], [-124.7642, 45.19237], [-124.76481, 45.192211], [-124.76542, 45.192051], [-124.76603, 45.191892], [-124.76664, 45.191732], [-124.76724, 45.191573], [-124.76785, 45.191413], [-124.76846, 45.191254], [-124.76907, 45.191094], [-124.76968, 45.190935], [-124.77029, 45.190775], [-124.77089, 45.190616], [-124.7715, 45.190456], [-124.77211, 45.190297], [-124.77272, 45.190137], [-124.77333, 45.189978], [-124.77393, 45.189818], [-124.77454, 45.189659], [-124.77515, 45.189499], [-124.77576, 45.18934], [-124.77637, 45.18918], [-124.77697, 45.189021], [-124.77758, 45.188861], [-124.77819, 45.188701], [-124.7788, 45.188542], [-124.77941, 45.188382], [-124.78001, 45.188223], [-124.78062, 45.188063], [-124.78123, 45.187904], [-124.78184, 45.187744], [-124.78243, 45.187555], [-124.78298, 45.187317], [-124.78353, 45.187079], [-124.78409, 45.186841], [-124.78464, 45.186604], [-124.7852, 45.186366], [-124.78575, 45.186128], [-124.78631, 45.18589], [-124.78686, 45.185652], [-124.78742, 45.185414], [-124.78797, 45.185177], [-124.78852, 45.184939], [-124.78908, 45.184701], [-124.78963, 45.184463], [-124.79019, 45.184225], [-124.79074, 45.183987], [-124.7913, 45.183749], [-124.79185, 45.183512], [-124.79241, 45.183274], [-124.79296, 45.183036], [-124.79351, 45.182798], [-124.79407, 45.18256], [-124.79462, 45.182322], [-124.79518, 45.182084], [-124.79573, 45.181847], [-124.79629, 45.181609], [-124.79684, 45.181371], [-124.7974, 45.181133], [-124.79795, 45.180895], [-124.79847, 45.180629], [-124.79895, 45.180321], [-124.79943, 45.180012], [-124.79991, 45.179704], [-124.80039, 45.179396], [-124.80088, 45.179088], [-124.80136, 45.17878], [-124.80184, 45.178471], [-124.80232, 45.178163], [-124.8028, 45.177855], [-124.80328, 45.177547], [-124.80376, 45.177239], [-124.80424, 45.17693], [-124.80472, 45.176622], [-124.8052, 45.176314], [-124.80568, 45.176006], [-124.80616, 45.175698], [-124.80664, 45.175389], [-124.80712, 45.175081], [-124.8076, 45.174773], [-124.80808, 45.174465], [-124.80856, 45.174156], [-124.80904, 45.173848], [-124.80952, 45.17354], [-124.81, 45.173232], [-124.81048, 45.172923], [-124.81096, 45.172615], [-124.81144, 45.172307], [-124.81192, 45.171999], [-124.8124, 45.171691], [-124.81288, 45.171382], [-124.81336, 45.171074], [-124.81384, 45.170766], [-124.81432, 45.170458], [-124.81476, 45.170125], [-124.81519, 45.169781], [-124.81562, 45.169436], [-124.81605, 45.169092], [-124.81648, 45.168747], [-124.8169, 45.168403], [-124.81733, 45.168059], [-124.81776, 45.167714], [-124.81819, 45.16737], [-124.81862, 45.167025], [-124.81904, 45.166681], [-124.81947, 45.166336], [-124.8199, 45.165992], [-124.82033, 45.165647], [-124.82075, 45.165303], [-124.82118, 45.164958], [-124.82161, 45.164614], [-124.82204, 45.164269], [-124.82247, 45.163925], [-124.82289, 45.16358], [-124.82332, 45.163236], [-124.82375, 45.162891], [-124.82418, 45.162547], [-124.82461, 45.162202], [-124.82503, 45.161858], [-124.82546, 45.161513], [-124.82589, 45.161169], [-124.82632, 45.160824], [-124.82675, 45.16048], [-124.82717, 45.160135], [-124.8276, 45.159791], [-124.82803, 45.159446], [-124.82846, 45.159102], [-124.82888, 45.158757], [-124.82931, 45.158413], [-124.82974, 45.158068], [-124.83017, 45.157724], [-124.8306, 45.157379], [-124.83102, 45.157035], [-124.83145, 45.15669], [-124.83188, 45.156346], [-124.83231, 45.156001], [-124.83276, 45.155672], [-124.83327, 45.15539], [-124.83378, 45.155107], [-124.83429, 45.154825], [-124.8348, 45.154543], [-124.83531, 45.154261], [-124.83582, 45.153978], [-124.83633, 45.153696], [-124.83684, 45.153414], [-124.83735, 45.153131], [-124.83786, 45.152849], [-124.83837, 45.152567], [-124.83888, 45.152285], [-124.8394, 45.152002], [-124.83991, 45.15172], [-124.84042, 45.151438], [-124.84093, 45.151155], [-124.84144, 45.150873], [-124.84195, 45.150591], [-124.84246, 45.150309], [-124.84297, 45.150026], [-124.84348, 45.149744], [-124.84399, 45.149462], [-124.8445, 45.149179], [-124.84501, 45.148897], [-124.84552, 45.148615], [-124.84604, 45.148332], [-124.84655, 45.14805], [-124.84706, 45.147768], [-124.84757, 45.147486], [-124.84808, 45.147203], [-124.84859, 45.146921], [-124.8491, 45.146639], [-124.84961, 45.146356], [-124.85012, 45.146074], [-124.85063, 45.145792], [-124.85114, 45.145509], [-124.85165, 45.145227], [-124.85216, 45.144945], [-124.85267, 45.144662], [-124.85318, 45.14438], [-124.8537, 45.144098], [-124.85421, 45.143815], [-124.85472, 45.143533], [-124.85523, 45.143251], [-124.85574, 45.142968], [-124.85625, 45.142686], [-124.85676, 45.142403], [-124.85727, 45.142121], [-124.85778, 45.141839], [-124.85829, 45.141556], [-124.8588, 45.141274], [-124.85931, 45.140992], [-124.85982, 45.140709], [-124.86033, 45.140427], [-124.86084, 45.140145], [-124.8614, 45.139918], [-124.86199, 45.139719], [-124.86257, 45.13952], [-124.86315, 45.139321], [-124.86374, 45.139122], [-124.86432, 45.138923], [-124.86491, 45.138724], [-124.86549, 45.138525], [-124.86607, 45.138326], [-124.86666, 45.138127], [-124.86724, 45.137928], [-124.86783, 45.137729], [-124.86841, 45.13753], [-124.86899, 45.137331], [-124.86958, 45.137132], [-124.87016, 45.136933], [-124.87074, 45.136734], [-124.87133, 45.136535], [-124.87191, 45.136336], [-124.8725, 45.136137], [-124.87308, 45.135938], [-124.87366, 45.135739], [-124.87425, 45.13554], [-124.87483, 45.135341], [-124.87541, 45.135142], [-124.876, 45.134943], [-124.87658, 45.134744], [-124.87716, 45.134545], [-124.87775, 45.134346], [-124.87833, 45.134147], [-124.87892, 45.133948], [-124.8795, 45.133749], [-124.88008, 45.13355], [-124.88067, 45.133351], [-124.88125, 45.133152], [-124.88183, 45.132953], [-124.88244, 45.132802], [-124.88308, 45.132712], [-124.88371, 45.132623], [-124.88435, 45.132533], [-124.88498, 45.132443], [-124.88562, 45.132354], [-124.88625, 45.132264], [-124.88689, 45.132174], [-124.88752, 45.132085], [-124.88816, 45.131995], [-124.88879, 45.131905], [-124.88943, 45.131816], [-124.89007, 45.131726], [-124.8907, 45.131636], [-124.89134, 45.131547], [-124.89197, 45.131457], [-124.89261, 45.131367], [-124.89324, 45.131278], [-124.89388, 45.131188], [-124.89451, 45.131098], [-124.89515, 45.131008], [-124.89578, 45.130919], [-124.89642, 45.130829], [-124.89705, 45.130739], [-124.89769, 45.13065], [-124.89832, 45.13056], [-124.89896, 45.13047], [-124.8996, 45.13038], [-124.90023, 45.130291], [-124.90087, 45.130201], [-124.9015, 45.130111], [-124.90214, 45.130021], [-124.90277, 45.129932], [-124.90341, 45.129842], [-124.90404, 45.129752], [-124.90468, 45.129685], [-124.90533, 45.129709], [-124.90597, 45.129733], [-124.90662, 45.129757], [-124.90727, 45.129781], [-124.90791, 45.129806], [-124.90856, 45.12983], [-124.90921, 45.129854], [-124.90986, 45.129878], [-124.9105, 45.129902], [-124.91115, 45.129926], [-124.9118, 45.129951], [-124.91244, 45.129975], [-124.91309, 45.129999], [-124.91374, 45.130023], [-124.91438, 45.130047], [-124.91503, 45.130071], [-124.91568, 45.130095], [-124.91633, 45.13012], [-124.91697, 45.130144], [-124.91762, 45.130168], [-124.91827, 45.130192], [-124.91891, 45.130216], [-124.91956, 45.13024], [-124.92021, 45.130264], [-124.92085, 45.130288], [-124.9215, 45.130312], [-124.92215, 45.130337], [-124.92279, 45.130361], [-124.92344, 45.130385], [-124.92409, 45.130409], [-124.92474, 45.130433], [-124.92538, 45.130457], [-124.92603, 45.130481], [-124.92668, 45.130505], [-124.92732, 45.130529], [-124.92797, 45.130553], [-124.92862, 45.130577], [-124.92926, 45.130601], [-124.92991, 45.130641], [-124.93053, 45.130768], [-124.93115, 45.130895], [-124.93178, 45.131022], [-124.9324, 45.131149], [-124.93302, 45.131275], [-124.93364, 45.131402], [-124.93427, 45.131529], [-124.93489, 45.131656], [-124.93551, 45.131783], [-124.93613, 45.13191], [-124.93676, 45.132036], [-124.93738, 45.132163], [-124.938, 45.13229], [-124.93862, 45.132417], [-124.93925, 45.132544], [-124.93987, 45.13267], [-124.94049, 45.132797], [-124.94111, 45.132924], [-124.94174, 45.133051], [-124.94236, 45.133178], [-124.94298, 45.133304], [-124.9436, 45.133431], [-124.94423, 45.133558], [-124.94485, 45.133685], [-124.94547, 45.133811], [-124.9461, 45.133938], [-124.94672, 45.134065], [-124.94734, 45.134192], [-124.94796, 45.134328], [-124.94857, 45.134474], [-124.94919, 45.13462], [-124.9498, 45.134765], [-124.95042, 45.134911], [-124.95103, 45.135057], [-124.95164, 45.135202], [-124.95226, 45.135348], [-124.95287, 45.135494], [-124.95349, 45.135639], [-124.9541, 45.135785], [-124.95472, 45.135931], [-124.95533, 45.136076], [-124.95595, 45.136222], [-124.95656, 45.136367], [-124.95717, 45.136513], [-124.95779, 45.136659], [-124.9584, 45.136804], [-124.95902, 45.13695], [-124.95963, 45.137096], [-124.96025, 45.137241], [-124.96086, 45.137387], [-124.96147, 45.137532], [-124.96209, 45.137678], [-124.9627, 45.137824], [-124.96332, 45.137969], [-124.96393, 45.138115], [-124.96455, 45.13826], [-124.96516, 45.138406], [-124.96578, 45.138551], [-124.96639, 45.138697], [-124.967, 45.138853], [-124.96761, 45.139012], [-124.96822, 45.13917], [-124.96882, 45.139328], [-124.96943, 45.139486], [-124.97004, 45.139644], [-124.97065, 45.139802], [-124.97126, 45.139961], [-124.97186, 45.140119], [-124.97247, 45.140277], [-124.97308, 45.140435], [-124.97369, 45.140593], [-124.9743, 45.140751], [-124.97491, 45.140909], [-124.97551, 45.141068], [-124.97612, 45.141226], [-124.97673, 45.141384], [-124.97734, 45.141542], [-124.97795, 45.1417], [-124.97855, 45.141858], [-124.97916, 45.142016], [-124.97977, 45.142174], [-124.98038, 45.142333], [-124.98099, 45.142491], [-124.9816, 45.142649], [-124.9822, 45.142807], [-124.98281, 45.142965], [-124.98342, 45.143123], [-124.98403, 45.143281], [-124.98464, 45.143439], [-124.98525, 45.143597], [-124.98585, 45.143755], [-124.98646, 45.143913], [-124.98707, 45.144071], [-124.98768, 45.14423], [-124.98829, 45.144388], [-124.9889, 45.144546], [-124.9895, 45.144704], [-124.99011, 45.144862], [-124.99072, 45.14502], [-124.99133, 45.145178], [-124.99194, 45.145336], [-124.99255, 45.145494], [-124.99315, 45.145652], [-124.99376, 45.14581], [-124.99437, 45.145968], [-124.99498, 45.146126], [-124.99559, 45.146284], [-124.99619, 45.146442], [-124.9968, 45.1466], [-124.99741, 45.146758], [-124.99802, 45.146916], [-124.99863, 45.147074], [-124.99924, 45.147232], [-124.99984, 45.14739], [-125.00045, 45.147548], [-125.00108, 45.147647], [-125.00173, 45.147701], [-125.00237, 45.147755], [-125.00301, 45.147809], [-125.00366, 45.147862], [-125.0043, 45.147916], [-125.00494, 45.14797], [-125.00559, 45.148024], [-125.00623, 45.148077], [-125.00687, 45.148131], [-125.00752, 45.148185], [-125.00816, 45.148239], [-125.0088, 45.148292], [-125.00945, 45.148346], [-125.01009, 45.1484], [-125.01074, 45.148454], [-125.01138, 45.148507], [-125.01202, 45.148561], [-125.01267, 45.148615], [-125.01331, 45.148669], [-125.01395, 45.148722], [-125.0146, 45.148776], [-125.01524, 45.14883], [-125.01588, 45.148883], [-125.01653, 45.148937], [-125.01717, 45.148991], [-125.01781, 45.149045], [-125.01846, 45.149098], [-125.0191, 45.149152], [-125.01975, 45.149206], [-125.02039, 45.149259], [-125.02103, 45.149313], [-125.02168, 45.149367], [-125.02232, 45.14942], [-125.02296, 45.149474], [-125.02361, 45.149528], [-125.02425, 45.149581], [-125.02489, 45.149635], [-125.02554, 45.149689], [-125.02618, 45.149742], [-125.02682, 45.149796], [-125.02747, 45.14985], [-125.02811, 45.149903], [-125.02876, 45.149957], [-125.0294, 45.150011], [-125.03004, 45.150064], [-125.03069, 45.150118], [-125.03133, 45.150171], [-125.03197, 45.150225], [-125.03262, 45.150279], [-125.03326, 45.150332], [-125.0339, 45.150386], [-125.03455, 45.15044], [-125.03519, 45.150493], [-125.03584, 45.150547], [-125.03648, 45.1506], [-125.03712, 45.150654], [-125.03777, 45.150707], [-125.03841, 45.150761], [-125.03905, 45.150815], [-125.0397, 45.150868], [-125.04034, 45.150904], [-125.04099, 45.150923], [-125.04164, 45.150917], [-125.04229, 45.15091], [-125.04293, 45.150903], [-125.04358, 45.150897], [-125.04423, 45.15089], [-125.04488, 45.150884], [-125.04553, 45.150877], [-125.04617, 45.15087], [-125.04682, 45.150864], [-125.04747, 45.150857], [-125.04812, 45.15085], [-125.04877, 45.150844], [-125.04941, 45.150837], [-125.05006, 45.150831], [-125.05071, 45.150824], [-125.05136, 45.150817], [-125.05201, 45.15081], [-125.05265, 45.150804], [-125.0533, 45.150797], [-125.05395, 45.15079], [-125.0546, 45.150783], [-125.05525, 45.150776], [-125.05589, 45.15077], [-125.05654, 45.150763], [-125.05719, 45.150756], [-125.05784, 45.150749], [-125.05849, 45.150743], [-125.05913, 45.150736], [-125.05978, 45.150729], [-125.06043, 45.150722], [-125.06108, 45.150715], [-125.06173, 45.150709], [-125.06237, 45.150702], [-125.06302, 45.150695], [-125.06367, 45.150688], [-125.06432, 45.150681], [-125.06497, 45.150674], [-125.06561, 45.150668], [-125.06626, 45.150661], [-125.06691, 45.150654], [-125.06756, 45.150647], [-125.0682, 45.150641], [-125.06885, 45.150634], [-125.0695, 45.150627], [-125.07015, 45.15062], [-125.0708, 45.150614], [-125.07144, 45.150607], [-125.07209, 45.1506], [-125.07274, 45.150593], [-125.07339, 45.150586], [-125.07404, 45.15058], [-125.07468, 45.150573], [-125.07533, 45.150566], [-125.07598, 45.150559], [-125.07663, 45.150552], [-125.07728, 45.150546], [-125.07792, 45.150539], [-125.07857, 45.150532], [-125.07922, 45.150525], [-125.07987, 45.150518], [-125.08052, 45.150511], [-125.08116, 45.150505], [-125.08181, 45.150489], [-125.08246, 45.150471], [-125.08311, 45.150453], [-125.08375, 45.150435], [-125.0844, 45.150417], [-125.08505, 45.150399], [-125.0857, 45.150382], [-125.08634, 45.150364], [-125.08699, 45.150346], [-125.08764, 45.150328], [-125.08829, 45.15031], [-125.08894, 45.150292], [-125.08958, 45.150274], [-125.09023, 45.150256], [-125.09088, 45.150238], [-125.09153, 45.150221], [-125.09217, 45.150203], [-125.09282, 45.150185], [-125.09347, 45.150149], [-125.09411, 45.15011], [-125.09476, 45.150071], [-125.0954, 45.150032], [-125.09605, 45.149993], [-125.09669, 45.149954], [-125.09734, 45.149915], [-125.09799, 45.149876], [-125.09863, 45.149835], [-125.09928, 45.149793], [-125.09992, 45.149751], [-125.10057, 45.149709], [-125.10121, 45.149667], [-125.10186, 45.149624], [-125.1025, 45.149582], [-125.10315, 45.14954], [-125.10379, 45.149498], [-125.10444, 45.149455], [-125.10508, 45.149413], [-125.10573, 45.149371], [-125.10637, 45.149329], [-125.10702, 45.149287], [-125.10767, 45.149244], [-125.10831, 45.149202], [-125.10896, 45.14916], [-125.1096, 45.149118], [-125.11025, 45.149075], [-125.11089, 45.149033], [-125.11154, 45.148991], [-125.11218, 45.148948], [-125.11283, 45.148906], [-125.11347, 45.148864], [-125.11412, 45.148822], [-125.11476, 45.148779], [-125.11541, 45.148737], [-125.11577, 45.148713]]}}]}