{"type": "FeatureCollection", "features": [{"type": "Feature", "properties": {"name": "OOI RCA North Cable", "cable": "north", "channel_min": 942, "channel_max": 32459}, "geometry": {"type": "LineString", "coordinates": [[-123.96715, 45.2023], [-123.96779, 45.202203], [-123.96842, 45.202106], [-123.96906, 45.202009], [-123.96969, 45.201912], [-123.97033, 45.201815], [-123.97096, 45.201718], [-123.9716, 45.201621], [-123.97223, 45.201524], [-123.97287, 45.201427], [-123.9735, 45.20133], [-123.97414, 45.201233], [-123.97477, 45.201136], [-123.97541, 45.201039], [-123.97604, 45.200942], [-123.97668, 45.200845], [-123.97732, 45.200748], [-123.97795, 45.200651], [-123.97859, 45.200554], [-123.97922, 45.200457], [-123.97986, 45.20036], [-123.98049, 45.200263], [-123.98113, 45.200166], [-123.98176, 45.200069], [-123.9824, 45.199972], [-123.98303, 45.199875], [-123.98367, 45.199778], [-123.9843, 45.199681], [-123.98494, 45.199584], [-123.98557, 45.199487], [-123.98621, 45.199386], [-123.98684, 45.199274], [-123.98747, 45.199161], [-123.9881, 45.199049], [-123.98873, 45.198936], [-123.98936, 45.198824], [-123.98999, 45.198712], [-123.99062, 45.198606], [-123.99125, 45.198502], [-123.99189, 45.198397], [-123.99252, 45.198292], [-123.99315, 45.198188], [-123.99379, 45.198083], [-123.99442, 45.197979], [-123.99505, 45.197874], [-123.99568, 45.19777], [-123.99632, 45.197665], [-123.99695, 45.197561], [-123.99758, 45.197456], [-123.99822, 45.197351], [-123.99885, 45.197247], [-123.99948, 45.197142], [-124.00011, 45.197038], [-124.00075, 45.196933], [-124.00138, 45.196829], [-124.00201, 45.196724], [-124.00265, 45.196619], [-124.00328, 45.196515], [-124.00391, 45.19641], [-124.00454, 45.196306], [-124.00518, 45.196201], [-124.00581, 45.196096], [-124.00644, 45.195992], [-124.00708, 45.195887], [-124.00771, 45.195783], [-124.00834, 45.195678], [-124.00897, 45.195573], [-124.00961, 45.195469], [-124.01024, 45.195366], [-124.01088, 45.195272], [-124.01151, 45.195177], [-124.01215, 45.195083], [-124.01279, 45.194989], [-124.01342, 45.194894], [-124.01406, 45.1948], [-124.01469, 45.194706], [-124.01533, 45.194611], [-124.01597, 45.194517], [-124.0166, 45.194423], [-124.01724, 45.194328], [-124.01787, 45.194234], [-124.01851, 45.19414], [-124.01915, 45.194045], [-124.01978, 45.193951], [-124.02042, 45.193857], [-124.02105, 45.193762], [-124.02169, 45.193668], [-124.02233, 45.193573], [-124.02296, 45.193479], [-124.0236, 45.193385], [-124.02423, 45.19329], [-124.02487, 45.193196], [-124.02551, 45.193101], [-124.02614, 45.193007], [-124.02678, 45.192913], [-124.02741, 45.192818], [-124.02805, 45.19274], [-124.0287, 45.192699], [-124.02935, 45.192685], [-124.03, 45.192718], [-124.03064, 45.19275], [-124.03129, 45.192783], [-124.03194, 45.192816], [-124.03259, 45.192849], [-124.03324, 45.192882], [-124.03389, 45.192914], [-124.03453, 45.192947], [-124.03518, 45.19298], [-124.03583, 45.193013], [-124.03648, 45.193045], [-124.03711, 45.193138], [-124.03774, 45.193256], [-124.03837, 45.193374], [-124.039, 45.193493], [-124.03962, 45.193611], [-124.04025, 45.193729], [-124.04088, 45.193847], [-124.04151, 45.193965], [-124.04214, 45.194083], [-124.04276, 45.194202], [-124.04339, 45.19432], [-124.04402, 45.194438], [-124.04465, 45.194556], [-124.04528, 45.194674], [-124.0459, 45.194792], [-124.04653, 45.19491], [-124.04716, 45.195029], [-124.04779, 45.195147], [-124.04844, 45.195186], [-124.04908, 45.195224], [-124.04973, 45.195261], [-124.05038, 45.195298], [-124.05103, 45.195335], [-124.05167, 45.195373], [-124.05232, 45.19541], [-124.05297, 45.195447], [-124.05362, 45.195484], [-124.05427, 45.195522], [-124.05491, 45.195559], [-124.05556, 45.195596], [-124.05621, 45.195633], [-124.05686, 45.195671], [-124.0575, 45.195708], [-124.05815, 45.195745], [-124.0588, 45.195782], [-124.05945, 45.19582], [-124.0601, 45.195857], [-124.06074, 45.195894], [-124.06139, 45.195932], [-124.06204, 45.195969], [-124.06269, 45.196006], [-124.06333, 45.196044], [-124.06398, 45.196081], [-124.06463, 45.196118], [-124.06528, 45.196155], [-124.06593, 45.196186], [-124.06658, 45.196205], [-124.06722, 45.196225], [-124.06787, 45.196244], [-124.06852, 45.196264], [-124.06917, 45.196283], [-124.06982, 45.196302], [-124.07047, 45.196322], [-124.07112, 45.196341], [-124.07177, 45.196361], [-124.07242, 45.19638], [-124.07307, 45.1964], [-124.07372, 45.196419], [-124.07437, 45.196438], [-124.07502, 45.196458], [-124.07567, 45.196477], [-124.07632, 45.196497], [-124.07696, 45.196516], [-124.07761, 45.196535], [-124.07826, 45.196555], [-124.07891, 45.196574], [-124.07956, 45.196593], [-124.08021, 45.196613], [-124.08086, 45.196632], [-124.08151, 45.196652], [-124.08216, 45.196671], [-124.08281, 45.19669], [-124.08346, 45.19671], [-124.08411, 45.196729], [-124.08476, 45.196748], [-124.08541, 45.196768], [-124.08605, 45.196787], [-124.0867, 45.196806], [-124.08735, 45.196826], [-124.088, 45.196845], [-124.08865, 45.196864], [-124.0893, 45.196884], [-124.08995, 45.196903], [-124.0906, 45.196922], [-124.09125, 45.196942], [-124.0919, 45.196961], [-124.09255, 45.19698], [-124.0932, 45.197], [-124.09385, 45.197019], [-124.0945, 45.197038], [-124.09515, 45.197057], [-124.09579, 45.197077], [-124.09644, 45.197096], [-124.09709, 45.197115], [-124.09774, 45.197135], [-124.09839, 45.197154], [-124.09904, 45.197173], [-124.09969, 45.197151], [-124.10034, 45.197119], [-124.10099, 45.197087], [-124.10164, 45.197055], [-124.10228, 45.197023], [-124.10293, 45.196991], [-124.10358, 45.19696], [-124.10423, 45.196928], [-124.10488, 45.196896], [-124.10553, 45.196864], [-124.10617, 45.196832], [-124.10682, 45.1968], [-124.10747, 45.196768], [-124.10812, 45.196736], [-124.10877, 45.196704], [-124.10942, 45.196672], [-124.11006, 45.19664], [-124.11071, 45.196608], [-124.11136, 45.196577], [-124.11201, 45.196545], [-124.11266, 45.196513], [-124.11331, 45.196481], [-124.11395, 45.196449], [-124.1146, 45.196417], [-124.11525, 45.196385], [-124.1159, 45.196353], [-124.11655, 45.196321], [-124.11719, 45.196289], [-124.11784, 45.196257], [-124.11849, 45.196225], [-124.11914, 45.196193], [-124.11979, 45.196161], [-124.12044, 45.196129], [-124.12108, 45.196097], [-124.12173, 45.196065], [-124.12238, 45.196033], [-124.12303, 45.196001], [-124.12368, 45.195969], [-124.12433, 45.195937], [-124.12497, 45.195905], [-124.12562, 45.195873], [-124.12627, 45.195841], [-124.12692, 45.195809], [-124.12757, 45.195777], [-124.12822, 45.195745], [-124.12886, 45.195713], [-124.12951, 45.195681], [-124.13016, 45.195649], [-124.13081, 45.195618], [-124.13146, 45.195586], [-124.13211, 45.195554], [-124.13275, 45.195522], [-124.1334, 45.195491], [-124.13405, 45.195459], [-124.1347, 45.195427], [-124.13535, 45.195395], [-124.136, 45.195363], [-124.13664, 45.195332], [-124.13729, 45.1953], [-124.13794, 45.195268], [-124.13859, 45.195236], [-124.13924, 45.195204], [-124.13989, 45.195173], [-124.14053, 45.195141], [-124.14118, 45.195109], [-124.14183, 45.195077], [-124.14248, 45.195045], [-124.14313, 45.195014], [-124.14378, 45.194982], [-124.14442, 45.19495], [-124.14507, 45.194918], [-124.14572, 45.194886], [-124.14637, 45.194854], [-124.14702, 45.194822], [-124.14767, 45.194791], [-124.14831, 45.194759], [-124.14896, 45.194727], [-124.14961, 45.194695], [-124.15026, 45.194663], [-124.15091, 45.194631], [-124.15156, 45.194599], [-124.1522, 45.194568], [-124.15285, 45.194536], [-124.1535, 45.194504], [-124.15415, 45.194472], [-124.1548, 45.19444], [-124.15545, 45.194408], [-124.15609, 45.194376], [-124.15674, 45.194344], [-124.15739, 45.194312], [-124.15804, 45.19428], [-124.15869, 45.194248], [-124.15934, 45.194217], [-124.15998, 45.194185], [-124.16063, 45.194153], [-124.16128, 45.194121], [-124.16193, 45.194089], [-124.16258, 45.194057], [-124.16323, 45.194025], [-124.16387, 45.193993], [-124.16452, 45.193961], [-124.16517, 45.193929], [-124.16582, 45.193897], [-124.16647, 45.193865], [-124.16711, 45.193833], [-124.16776, 45.193801], [-124.16841, 45.193769], [-124.16906, 45.193737], [-124.16971, 45.193705], [-124.17036, 45.193673], [-124.171, 45.193641], [-124.17165, 45.193609], [-124.1723, 45.193577], [-124.17295, 45.193545], [-124.1736, 45.193513], [-124.17425, 45.193481], [-124.17489, 45.193449], [-124.17554, 45.193417], [-124.17619, 45.193385], [-124.17684, 45.193353], [-124.17749, 45.193321], [-124.17814, 45.193289], [-124.17878, 45.193257], [-124.17943, 45.193225], [-124.18008, 45.193193], [-124.18073, 45.193161], [-124.18138, 45.193129], [-124.18203, 45.193097], [-124.18267, 45.193065], [-124.18332, 45.193033], [-124.18397, 45.193001], [-124.18462, 45.192969], [-124.18527, 45.192937], [-124.18591, 45.192905], [-124.18656, 45.192872], [-124.18721, 45.19284], [-124.18786, 45.192808], [-124.18851, 45.192776], [-124.18916, 45.192744], [-124.1898, 45.192712], [-124.19045, 45.192738], [-124.1911, 45.19278], [-124.19175, 45.192821], [-124.19239, 45.192863], [-124.19304, 45.192905], [-124.19369, 45.192947], [-124.19433, 45.192989], [-124.19498, 45.193031], [-124.19563, 45.193073], [-124.19628, 45.193114], [-124.19692, 45.193156], [-124.19757, 45.193198], [-124.19822, 45.19324], [-124.19886, 45.193282], [-124.19951, 45.193323], [-124.20016, 45.193365], [-124.20081, 45.193407], [-124.20145, 45.193449], [-124.2021, 45.193491], [-124.20275, 45.193533], [-124.20339, 45.193574], [-124.20404, 45.193616], [-124.20469, 45.193658], [-124.20534, 45.1937], [-124.20598, 45.193741], [-124.20663, 45.193783], [-124.20728, 45.193825], [-124.20792, 45.193867], [-124.20857, 45.193909], [-124.20922, 45.19395], [-124.20987, 45.193992], [-124.21051, 45.194034], [-124.21116, 45.194076], [-124.21181, 45.194117], [-124.21246, 45.194159], [-124.2131, 45.194201], [-124.21375, 45.194243], [-124.2144, 45.194284], [-124.21504, 45.194326], [-124.21569, 45.194368], [-124.21634, 45.19441], [-124.21699, 45.194451], [-124.21763, 45.194493], [-124.21828, 45.194535], [-124.21893, 45.194576], [-124.21957, 45.194618], [-124.22022, 45.19466], [-124.22085, 45.194771], [-124.22146, 45.194915], [-124.22208, 45.195059], [-124.2227, 45.195203], [-124.22332, 45.195348], [-124.22393, 45.195492], [-124.22455, 45.195636], [-124.22517, 45.19578], [-124.22578, 45.195924], [-124.2264, 45.196069], [-124.22702, 45.196213], [-124.22764, 45.196357], [-124.22825, 45.196501], [-124.22887, 45.196645], [-124.22949, 45.196789], [-124.2301, 45.196934], [-124.23072, 45.197078], [-124.23134, 45.197222], [-124.23195, 45.197366], [-124.23257, 45.19751], [-124.23319, 45.197654], [-124.23381, 45.197799], [-124.23442, 45.197943], [-124.23504, 45.198087], [-124.23566, 45.198231], [-124.23627, 45.198375], [-124.23689, 45.198519], [-124.23751, 45.198663], [-124.23813, 45.198808], [-124.23874, 45.198952], [-124.23936, 45.199096], [-124.23998, 45.19924], [-124.24059, 45.199384], [-124.24121, 45.199528], [-124.24183, 45.199672], [-124.24245, 45.199816], [-124.24306, 45.19996], [-124.24368, 45.200105], [-124.2443, 45.200249], [-124.24491, 45.200393], [-124.24553, 45.200537], [-124.24615, 45.200681], [-124.24677, 45.200825], [-124.24738, 45.200969], [-124.248, 45.201113], [-124.24862, 45.201257], [-124.24923, 45.201401], [-124.24985, 45.201545], [-124.25047, 45.201689], [-124.25109, 45.201834], [-124.2517, 45.201978], [-124.25232, 45.202122], [-124.25294, 45.202266], [-124.25355, 45.20241], [-124.25417, 45.20256], [-124.25478, 45.202723], [-124.25538, 45.202885], [-124.25599, 45.203048], [-124.2566, 45.20321], [-124.25721, 45.203373], [-124.25782, 45.203535], [-124.25842, 45.203698], [-124.25903, 45.20386], [-124.25964, 45.204023], [-124.26025, 45.204185], [-124.26086, 45.204348], [-124.26146, 45.20451], [-124.26207, 45.204673], [-124.26268, 45.204835], [-124.26329, 45.204998], [-124.2639, 45.20516], [-124.2645, 45.205322], [-124.26511, 45.205485], [-124.26572, 45.205647], [-124.26633, 45.20581], [-124.26694, 45.205972], [-124.26754, 45.206135], [-124.26815, 45.206297], [-124.26876, 45.206459], [-124.26937, 45.206622], [-124.26998, 45.206784], [-124.27058, 45.206947], [-124.27119, 45.207109], [-124.2718, 45.207272], [-124.27241, 45.207434], [-124.27302, 45.207596], [-124.27362, 45.207759], [-124.27423, 45.207921], [-124.27484, 45.208084], [-124.27545, 45.208246], [-124.27606, 45.208409], [-124.27666, 45.208571], [-124.27727, 45.208734], [-124.27788, 45.208896], [-124.27849, 45.209059], [-124.2791, 45.209221], [-124.2797, 45.209384], [-124.28031, 45.209546], [-124.28092, 45.209709], [-124.28153, 45.209871], [-124.28214, 45.210034], [-124.28275, 45.210175], [-124.28338, 45.210312], [-124.284, 45.210449], [-124.28462, 45.210586], [-124.28524, 45.210723], [-124.28586, 45.210859], [-124.28648, 45.210996], [-124.2871, 45.211133], [-124.28772, 45.21127], [-124.28834, 45.211406], [-124.28896, 45.211543], [-124.28958, 45.21168], [-124.2902, 45.211817], [-124.29082, 45.211953], [-124.29144, 45.21209], [-124.29206, 45.212227], [-124.29268, 45.212364], [-124.2933, 45.2125], [-124.29393, 45.212637], [-124.29455, 45.212774], [-124.29517, 45.21291], [-124.29579, 45.213047], [-124.29641, 45.213184], [-124.29703, 45.213321], [-124.29765, 45.213457], [-124.29827, 45.213594], [-124.29889, 45.213731], [-124.29951, 45.213867], [-124.30013, 45.214004], [-124.30075, 45.214141], [-124.30137, 45.214277], [-124.30201, 45.214383], [-124.30264, 45.214483], [-124.30327, 45.214583], [-124.30391, 45.214682], [-124.30454, 45.214782], [-124.30518, 45.214881], [-124.30581, 45.214981], [-124.30645, 45.21508], [-124.30708, 45.21518], [-124.30772, 45.215279], [-124.30835, 45.215379], [-124.30899, 45.215478], [-124.30962, 45.215578], [-124.31026, 45.215677], [-124.31089, 45.215777], [-124.31152, 45.215876], [-124.31216, 45.215976], [-124.31279, 45.216075], [-124.31343, 45.216175], [-124.31406, 45.216274], [-124.3147, 45.216374], [-124.31533, 45.216473], [-124.31597, 45.216572], [-124.3166, 45.216672], [-124.31724, 45.216771], [-124.31787, 45.216871], [-124.31851, 45.21697], [-124.31914, 45.21707], [-124.31978, 45.217169], [-124.32041, 45.217269], [-124.32105, 45.217368], [-124.32168, 45.217468], [-124.32231, 45.217567], [-124.32295, 45.217666], [-124.32358, 45.217766], [-124.32422, 45.217865], [-124.32485, 45.217965], [-124.32549, 45.218064], [-124.32612, 45.218163], [-124.32676, 45.218263], [-124.32739, 45.218362], [-124.32803, 45.218462], [-124.32866, 45.218561], [-124.3293, 45.21866], [-124.32993, 45.21876], [-124.33057, 45.218859], [-124.3312, 45.218959], [-124.33184, 45.21904], [-124.33248, 45.219114], [-124.33312, 45.219188], [-124.33377, 45.219262], [-124.33441, 45.219335], [-124.33505, 45.219409], [-124.33569, 45.219483], [-124.33633, 45.219556], [-124.33697, 45.21963], [-124.33762, 45.219704], [-124.33826, 45.219777], [-124.3389, 45.219851], [-124.33954, 45.219925], [-124.34018, 45.219998], [-124.34082, 45.220072], [-124.34147, 45.220146], [-124.34211, 45.220219], [-124.34275, 45.220293], [-124.34339, 45.220367], [-124.34403, 45.22044], [-124.34467, 45.220514], [-124.34532, 45.220588], [-124.34596, 45.220661], [-124.3466, 45.220735], [-124.34724, 45.220808], [-124.34788, 45.220882], [-124.34853, 45.220956], [-124.34917, 45.221029], [-124.34981, 45.221103], [-124.35045, 45.221177], [-124.35109, 45.22125], [-124.35173, 45.221324], [-124.35238, 45.221397], [-124.35301, 45.221498], [-124.35363, 45.221632], [-124.35425, 45.221766], [-124.35487, 45.221899], [-124.3555, 45.222033], [-124.35612, 45.222167], [-124.35674, 45.222301], [-124.35736, 45.222435], [-124.35798, 45.222569], [-124.35861, 45.222703], [-124.35923, 45.222837], [-124.35985, 45.222971], [-124.36047, 45.223105], [-124.36109, 45.223239], [-124.36172, 45.223373], [-124.36234, 45.223506], [-124.36296, 45.22364], [-124.36358, 45.223774], [-124.3642, 45.223908], [-124.36483, 45.224042], [-124.36545, 45.224176], [-124.36607, 45.22431], [-124.36669, 45.224444], [-124.36731, 45.224577], [-124.36794, 45.224711], [-124.36856, 45.224845], [-124.36918, 45.224979], [-124.3698, 45.225113], [-124.37042, 45.225247], [-124.37105, 45.225381], [-124.37167, 45.225514], [-124.37229, 45.225648], [-124.37291, 45.225782], [-124.37353, 45.225916], [-124.37416, 45.22605], [-124.37478, 45.226184], [-124.3754, 45.226317], [-124.37602, 45.226451], [-124.37664, 45.226585], [-124.37727, 45.226719], [-124.37789, 45.226853], [-124.37851, 45.226986], [-124.37913, 45.22712], [-124.37975, 45.227254], [-124.38038, 45.227388], [-124.381, 45.227522], [-124.38162, 45.227655], [-124.38224, 45.227789], [-124.38286, 45.227923], [-124.38349, 45.228057], [-124.38411, 45.228191], [-124.38473, 45.228324], [-124.38535, 45.228458], [-124.38597, 45.228592], [-124.3866, 45.228726], [-124.38722, 45.228859], [-124.38784, 45.228993], [-124.38846, 45.229127], [-124.38908, 45.229261], [-124.38971, 45.229394], [-124.39033, 45.229528], [-124.39095, 45.229662], [-124.39157, 45.229796], [-124.39219, 45.229929], [-124.39282, 45.230063], [-124.39344, 45.230197], [-124.39406, 45.23033], [-124.39468, 45.230464], [-124.39531, 45.230598], [-124.39593, 45.230732], [-124.39655, 45.230865], [-124.39717, 45.230999], [-124.39779, 45.231133], [-124.39842, 45.231266], [-124.39904, 45.2314], [-124.39966, 45.231534], [-124.40028, 45.231667], [-124.4009, 45.231801], [-124.40153, 45.231935], [-124.40215, 45.232069], [-124.40277, 45.232202], [-124.40339, 45.232336], [-124.40402, 45.23247], [-124.40464, 45.232603], [-124.40526, 45.232737], [-124.40588, 45.23287], [-124.4065, 45.233004], [-124.40713, 45.233138], [-124.40775, 45.233271], [-124.40837, 45.233405], [-124.409, 45.233511], [-124.40964, 45.233606], [-124.41028, 45.233701], [-124.41091, 45.233795], [-124.41155, 45.23389], [-124.41218, 45.233985], [-124.41282, 45.23408], [-124.41346, 45.234174], [-124.41409, 45.234269], [-124.41473, 45.234364], [-124.41537, 45.234459], [-124.416, 45.234554], [-124.41664, 45.234648], [-124.41727, 45.234743], [-124.41791, 45.234838], [-124.41855, 45.234932], [-124.41918, 45.235027], [-124.41982, 45.235122], [-124.42046, 45.235217], [-124.42109, 45.235311], [-124.42173, 45.235406], [-124.42237, 45.235501], [-124.423, 45.235596], [-124.42364, 45.23569], [-124.42427, 45.235785], [-124.42491, 45.23588], [-124.42555, 45.235974], [-124.42618, 45.236069], [-124.42682, 45.236164], [-124.42746, 45.236259], [-124.42809, 45.236353], [-124.42873, 45.236448], [-124.42936, 45.236543], [-124.43, 45.236637], [-124.43064, 45.236732], [-124.43127, 45.236827], [-124.43191, 45.236921], [-124.43255, 45.237016], [-124.43318, 45.237111], [-124.43382, 45.237205], [-124.43446, 45.2373], [-124.43509, 45.237395], [-124.43573, 45.237489], [-124.43636, 45.237584], [-124.437, 45.237678], [-124.43764, 45.237773], [-124.43827, 45.237868], [-124.43891, 45.237962], [-124.43955, 45.238057], [-124.44018, 45.238152], [-124.44082, 45.238246], [-124.44146, 45.238341], [-124.44209, 45.238435], [-124.44273, 45.23853], [-124.44337, 45.238625], [-124.444, 45.238719], [-124.44464, 45.238814], [-124.44527, 45.238908], [-124.44591, 45.239003], [-124.44655, 45.239098], [-124.44718, 45.239192], [-124.44782, 45.239287], [-124.44846, 45.239381], [-124.44909, 45.239476], [-124.44973, 45.23957], [-124.45037, 45.239665], [-124.451, 45.23976], [-124.45164, 45.239854], [-124.45228, 45.239949], [-124.4529, 45.240079], [-124.45352, 45.240211], [-124.45414, 45.240342], [-124.45477, 45.240474], [-124.45539, 45.240605], [-124.45601, 45.240737], [-124.45664, 45.240868], [-124.45726, 45.241], [-124.45788, 45.241131], [-124.45851, 45.241263], [-124.45913, 45.241394], [-124.45975, 45.241526], [-124.46038, 45.241657], [-124.461, 45.241789], [-124.46162, 45.24192], [-124.46225, 45.242052], [-124.46287, 45.242183], [-124.46349, 45.242315], [-124.46412, 45.242446], [-124.46474, 45.242578], [-124.46536, 45.242709], [-124.46598, 45.242841], [-124.46661, 45.242972], [-124.46723, 45.243104], [-124.46785, 45.243235], [-124.46848, 45.243367], [-124.4691, 45.243498], [-124.46972, 45.24363], [-124.47035, 45.243761], [-124.47097, 45.243893], [-124.47159, 45.244024], [-124.47222, 45.244155], [-124.47284, 45.244287], [-124.47346, 45.244418], [-124.47409, 45.24455], [-124.47471, 45.244681], [-124.47533, 45.244813], [-124.47596, 45.244944], [-124.47658, 45.245076], [-124.4772, 45.245207], [-124.47783, 45.245338], [-124.47845, 45.24547], [-124.47907, 45.245601], [-124.4797, 45.245733], [-124.48032, 45.245864], [-124.48094, 45.245995], [-124.48157, 45.246127], [-124.48219, 45.246258], [-124.48281, 45.24639], [-124.48344, 45.246521], [-124.48406, 45.246652], [-124.48468, 45.246784], [-124.4853, 45.246915], [-124.48593, 45.247046], [-124.48655, 45.247178], [-124.48717, 45.247309], [-124.4878, 45.24744], [-124.48842, 45.247572], [-124.48904, 45.247703], [-124.48967, 45.247835], [-124.49029, 45.247966], [-124.49091, 45.248097], [-124.49154, 45.248229], [-124.49216, 45.24836], [-124.49278, 45.248491], [-124.49341, 45.248623], [-124.49403, 45.248754], [-124.49465, 45.248885], [-124.49528, 45.249017], [-124.4959, 45.249148], [-124.49652, 45.249279], [-124.49715, 45.24941], [-124.49777, 45.249542], [-124.49839, 45.249673], [-124.49902, 45.249804], [-124.49964, 45.249936], [-124.50026, 45.250067], [-124.50089, 45.250198], [-124.50151, 45.25033], [-124.50213, 45.250461], [-124.50276, 45.250592], [-124.50338, 45.250723], [-124.504, 45.250855], [-124.50463, 45.250986], [-124.50525, 45.251117], [-124.50587, 45.251248], [-124.5065, 45.25138], [-124.50712, 45.251511], [-124.50774, 45.251642], [-124.50837, 45.251773], [-124.50899, 45.251905], [-124.50961, 45.252036], [-124.51024, 45.252167], [-124.51086, 45.252298], [-124.51148, 45.25243], [-124.51211, 45.252561], [-124.51273, 45.252692], [-124.51335, 45.252823], [-124.51398, 45.252954], [-124.5146, 45.253086], [-124.51523, 45.253217], [-124.51585, 45.253348], [-124.51647, 45.253479], [-124.5171, 45.25361], [-124.51772, 45.253742], [-124.51834, 45.253873], [-124.51897, 45.254004], [-124.51959, 45.254135], [-124.52021, 45.254266], [-124.52084, 45.254398], [-124.52146, 45.254529], [-124.52208, 45.25466], [-124.52271, 45.254791], [-124.52333, 45.254922], [-124.52395, 45.255053], [-124.52458, 45.255185], [-124.5252, 45.255316], [-124.52582, 45.255447], [-124.52645, 45.255578], [-124.52707, 45.255709], [-124.52769, 45.25584], [-124.52832, 45.255971], [-124.52894, 45.256103], [-124.52956, 45.256234], [-124.53019, 45.256365], [-124.53081, 45.256496], [-124.53143, 45.256627], [-124.53206, 45.256758], [-124.53268, 45.256889], [-124.5333, 45.25702], [-124.53393, 45.257151], [-124.53455, 45.257283], [-124.53518, 45.257414], [-124.5358, 45.257545], [-124.53642, 45.257676], [-124.53705, 45.257807], [-124.53767, 45.257938], [-124.53829, 45.258069], [-124.53892, 45.2582], [-124.53954, 45.258331], [-124.54016, 45.258462], [-124.54079, 45.258593], [-124.54141, 45.258724], [-124.54203, 45.258856], [-124.54266, 45.258987], [-124.54328, 45.259118], [-124.5439, 45.259249], [-124.54453, 45.25938], [-124.54515, 45.259511], [-124.54578, 45.259642], [-124.5464, 45.259773], [-124.54702, 45.259904], [-124.54765, 45.260035], [-124.54827, 45.260166], [-124.54889, 45.260297], [-124.54952, 45.260428], [-124.55014, 45.260559], [-124.55076, 45.26069], [-124.55139, 45.260821], [-124.55201, 45.260952], [-124.55263, 45.261083], [-124.55326, 45.261214], [-124.55388, 45.261345], [-124.55451, 45.261476], [-124.55513, 45.261607], [-124.55575, 45.261738], [-124.55638, 45.261869], [-124.557, 45.262], [-124.55762, 45.262131], [-124.55825, 45.262262], [-124.55887, 45.262393], [-124.55949, 45.262524], [-124.56012, 45.262655], [-124.56074, 45.262786], [-124.56136, 45.262917], [-124.56199, 45.263048], [-124.56261, 45.263179], [-124.56324, 45.263309], [-124.56386, 45.26344], [-124.56448, 45.263571], [-124.56511, 45.263702], [-124.56573, 45.263833], [-124.56635, 45.263964], [-124.56698, 45.264095], [-124.5676, 45.264226], [-124.56822, 45.264357], [-124.56885, 45.264488], [-124.56947, 45.26462], [-124.57009, 45.264751], [-124.57072, 45.264882], [-124.57134, 45.265014], [-124.57197, 45.265145], [-124.57259, 45.265276], [-124.57321, 45.265408], [-124.57384, 45.265539], [-124.57446, 45.26567], [-124.57508, 45.265802], [-124.57571, 45.265933], [-124.57633, 45.266064], [-124.57695, 45.266195], [-124.57758, 45.266327], [-124.5782, 45.266458], [-124.57882, 45.266589], [-124.57945, 45.266721], [-124.58007, 45.266852], [-124.58069, 45.266983], [-124.58132, 45.267114], [-124.58194, 45.267246], [-124.58256, 45.267377], [-124.58319, 45.267508], [-124.58381, 45.267639], [-124.58444, 45.267771], [-124.58506, 45.267902], [-124.58568, 45.268033], [-124.58631, 45.268164], [-124.58693, 45.268296], [-124.58755, 45.268427], [-124.58818, 45.268558], [-124.5888, 45.268689], [-124.58942, 45.268821], [-124.59005, 45.268952], [-124.59067, 45.269083], [-124.59129, 45.269214], [-124.59192, 45.269345], [-124.59254, 45.269477], [-124.59317, 45.269608], [-124.59379, 45.269739], [-124.59441, 45.26987], [-124.59504, 45.270001], [-124.59566, 45.270133], [-124.59628, 45.270264], [-124.59691, 45.270395], [-124.59753, 45.270526], [-124.59815, 45.270657], [-124.59878, 45.270789], [-124.5994, 45.27092], [-124.60002, 45.271051], [-124.60065, 45.271182], [-124.60127, 45.271313], [-124.6019, 45.271444], [-124.60252, 45.271576], [-124.60314, 45.271707], [-124.60377, 45.271838], [-124.60439, 45.271969], [-124.60501, 45.2721], [-124.60564, 45.272231], [-124.60626, 45.272362], [-124.60688, 45.272494], [-124.60751, 45.272625], [-124.60813, 45.272756], [-124.60876, 45.272887], [-124.60938, 45.273018], [-124.61, 45.273149], [-124.61063, 45.27328], [-124.61125, 45.273411], [-124.61187, 45.273542], [-124.6125, 45.273674], [-124.61312, 45.273808], [-124.61373, 45.273961], [-124.61435, 45.274113], [-124.61496, 45.274266], [-124.61557, 45.274418], [-124.61619, 45.274571], [-124.6168, 45.274723], [-124.61742, 45.274876], [-124.61803, 45.275028], [-124.61864, 45.275181], [-124.61926, 45.275333], [-124.61987, 45.275486], [-124.62049, 45.275638], [-124.6211, 45.275791], [-124.62171, 45.275943], [-124.62233, 45.276095], [-124.62294, 45.276248], [-124.62355, 45.2764], [-124.62417, 45.276553], [-124.62478, 45.276705], [-124.6254, 45.276858], [-124.62601, 45.27701], [-124.62662, 45.277162], [-124.62724, 45.277315], [-124.62785, 45.277467], [-124.62847, 45.27762], [-124.62908, 45.277772], [-124.62969, 45.277925], [-124.63031, 45.278077], [-124.63092, 45.278229], [-124.63154, 45.278382], [-124.63215, 45.278534], [-124.63276, 45.278687], [-124.63338, 45.278839], [-124.63399, 45.278991], [-124.6346, 45.279144], [-124.63522, 45.279296], [-124.63586, 45.279349], [-124.63651, 45.279389], [-124.63716, 45.279429], [-124.63781, 45.279469], [-124.63846, 45.279509], [-124.6391, 45.279549], [-124.63975, 45.279589], [-124.6404, 45.279629], [-124.64105, 45.279669], [-124.6417, 45.279709], [-124.64235, 45.279749], [-124.64299, 45.279789], [-124.64364, 45.279829], [-124.64429, 45.279869], [-124.64494, 45.279909], [-124.64559, 45.279949], [-124.64624, 45.279989], [-124.64688, 45.280029], [-124.64753, 45.280069], [-124.64818, 45.280109], [-124.64883, 45.280149], [-124.64948, 45.280189], [-124.65013, 45.280229], [-124.65077, 45.280269], [-124.65142, 45.280309], [-124.65207, 45.280349], [-124.65272, 45.280389], [-124.65337, 45.280429], [-124.65402, 45.280469], [-124.65466, 45.280509], [-124.65531, 45.280502], [-124.65595, 45.280422], [-124.65659, 45.280342], [-124.65723, 45.280261], [-124.65787, 45.280181], [-124.65851, 45.280101], [-124.65915, 45.280021], [-124.65979, 45.27994], [-124.66044, 45.27986], [-124.66108, 45.27978], [-124.66172, 45.279699], [-124.66236, 45.279619], [-124.663, 45.279539], [-124.66364, 45.279458], [-124.66428, 45.279378], [-124.66492, 45.279298], [-124.66556, 45.279218], [-124.6662, 45.279137], [-124.66684, 45.279057], [-124.66748, 45.278977], [-124.66812, 45.278896], [-124.66877, 45.278816], [-124.66941, 45.278736], [-124.67005, 45.278655], [-124.67069, 45.278575], [-124.67133, 45.278494], [-124.67197, 45.278414], [-124.67261, 45.278334], [-124.67325, 45.278253], [-124.67389, 45.278173], [-124.67453, 45.278093], [-124.67517, 45.278012], [-124.67577, 45.277839], [-124.67636, 45.277646], [-124.67695, 45.277453], [-124.67754, 45.27726], [-124.67813, 45.277067], [-124.67872, 45.276874], [-124.67932, 45.276681], [-124.67991, 45.276488], [-124.6805, 45.276295], [-124.68109, 45.276102], [-124.68168, 45.275909], [-124.68227, 45.275716], [-124.68286, 45.275523], [-124.68345, 45.275331], [-124.68404, 45.275138], [-124.68463, 45.274945], [-124.68522, 45.274752], [-124.68581, 45.274559], [-124.6864, 45.274366], [-124.68699, 45.274173], [-124.68758, 45.27398], [-124.68817, 45.273787], [-124.68876, 45.273594], [-124.68935, 45.273401], [-124.68994, 45.273208], [-124.69054, 45.273015], [-124.69113, 45.272822], [-124.69172, 45.272629], [-124.69231, 45.272436], [-124.6929, 45.272243], [-124.69349, 45.27205], [-124.69408, 45.271857], [-124.69463, 45.271612], [-124.69518, 45.271366], [-124.69573, 45.27112], [-124.69628, 45.270875], [-124.69683, 45.270629], [-124.69738, 45.270383], [-124.69793, 45.270138], [-124.69848, 45.269892], [-124.69903, 45.269646], [-124.69958, 45.269401], [-124.70013, 45.269155], [-124.70068, 45.26891], [-124.70123, 45.268664], [-124.70178, 45.268418], [-124.70233, 45.268173], [-124.70288, 45.267927], [-124.70343, 45.267681], [-124.70398, 45.267436], [-124.70453, 45.26719], [-124.70508, 45.266944], [-124.70563, 45.266699], [-124.70617, 45.266453], [-124.70672, 45.266207], [-124.70727, 45.265962], [-124.70782, 45.265716], [-124.70837, 45.26547], [-124.70892, 45.265225], [-124.70947, 45.264979], [-124.71002, 45.264733], [-124.71057, 45.264487], [-124.71112, 45.264242], [-124.71167, 45.263996], [-124.71222, 45.26375], [-124.71277, 45.263505], [-124.71332, 45.263259], [-124.71387, 45.263013], [-124.71442, 45.262768], [-124.71497, 45.262522], [-124.71552, 45.262276], [-124.71607, 45.26203], [-124.71662, 45.261785], [-124.71717, 45.261539], [-124.71772, 45.261293], [-124.71827, 45.261047], [-124.71879, 45.260768], [-124.7193, 45.260484], [-124.71981, 45.2602], [-124.72032, 45.259915], [-124.72083, 45.259631], [-124.72134, 45.259347], [-124.72185, 45.259062], [-124.72236, 45.258778], [-124.72287, 45.258494], [-124.72338, 45.258209], [-124.72389, 45.257925], [-124.72441, 45.257641], [-124.72492, 45.257356], [-124.72543, 45.257072], [-124.72594, 45.256788], [-124.72645, 45.256503], [-124.72696, 45.256219], [-124.72747, 45.255934], [-124.72798, 45.25565], [-124.72849, 45.255366], [-124.729, 45.255081], [-124.72952, 45.254797], [-124.73003, 45.254513], [-124.73054, 45.254228], [-124.73105, 45.253944], [-124.73156, 45.253659], [-124.73206, 45.253367], [-124.73256, 45.253073], [-124.73306, 45.25278], [-124.73356, 45.252487], [-124.73406, 45.252194], [-124.73456, 45.251901], [-124.73507, 45.251608], [-124.73557, 45.251315], [-124.73607, 45.251022], [-124.73657, 45.250729], [-124.73707, 45.250436], [-124.73757, 45.250143], [-124.73807, 45.24985], [-124.73857, 45.249557], [-124.73907, 45.249264], [-124.73957, 45.248971], [-124.74007, 45.248677], [-124.74058, 45.248384], [-124.74108, 45.248091], [-124.74158, 45.247798], [-124.74208, 45.247505], [-124.74258, 45.247212], [-124.74308, 45.246919], [-124.74358, 45.246626], [-124.74408, 45.246333], [-124.74458, 45.24604], [-124.74508, 45.245746], [-124.74558, 45.245453], [-124.74608, 45.24516], [-124.74659, 45.244867], [-124.74709, 45.244574], [-124.74759, 45.244281], [-124.74809, 45.243988], [-124.74859, 45.243695], [-124.74909, 45.243401], [-124.74959, 45.243108], [-124.7501, 45.242824], [-124.75062, 45.242552], [-124.75102, 45.24241]]}}]}